{
  "type": "FeatureCollection",
  "features": [
    {
      "type": "Feature",
      "properties": {
        "norad_id": 31303,
        "name": "FENGYUN 1C DEB",
        "group": "fengyun-1c-debris",
        "lat": 36.786406293256746,
        "lon": -12.51471150801928,
        "alt_km": 859.3967479792827,
        "timestamp": "2025-12-03T13:52:09.843540+00:00",
        "meta_object_name": "FENGYUN 1C DEB",
        "meta_object_id": "1999-025BPM",
        "meta_epoch": "2025-12-03T06:53:07.798848",
        "meta_mean_motion": 14.11018646,
        "meta_eccentricity": 0.00111596,
        "meta_inclination": 98.7053,
        "meta_ra_of_asc_node": 353.7816,
        "meta_arg_of_pericenter": 178.1481,
        "meta_mean_anomaly": 181.9733,
        "meta_ephemeris_type": 0,
        "meta_classification_type": "U",
        "meta_norad_cat_id": 31303,
        "meta_element_set_no": 999,
        "meta_rev_at_epoch": 96185,
        "meta_bstar": 0.00016201872,
        "meta_mean_motion_dot": 2.49e-06,
        "meta_mean_motion_ddot": 0,
        "tle_line1": "1 31303U 99025BPM 25337.28689582  .00000249  00000+0  16202-3 0  9991",
        "tle_line2": "2 31303  98.7053 353.7816 0011159 178.1481 181.9733 14.11018646961857"
      },
      "geometry": {
        "type": "Point",
        "coordinates": [
          -12.51471150801928,
          36.786406293256746
        ]
      }
    },
    {
      "type": "Feature",
      "properties": {
        "norad_id": 31311,
        "name": "FENGYUN 1C DEB",
        "group": "fengyun-1c-debris",
        "lat": -21.746862226252762,
        "lon": -124.78912025127528,
        "alt_km": 798.0116427445382,
        "timestamp": "2025-12-03T13:52:09.843551+00:00",
        "meta_object_name": "FENGYUN 1C DEB",
        "meta_object_id": "1999-025BPP",
        "meta_epoch": "2025-12-03T04:39:59.432832",
        "meta_mean_motion": 14.29604123,
        "meta_eccentricity": 0.00195372,
        "meta_inclination": 98.8541,
        "meta_ra_of_asc_node": 58.3861,
        "meta_arg_of_pericenter": 114.1459,
        "meta_mean_anomaly": 275.1798,
        "meta_ephemeris_type": 0,
        "meta_classification_type": "U",
        "meta_norad_cat_id": 31311,
        "meta_element_set_no": 999,
        "meta_rev_at_epoch": 96085,
        "meta_bstar": 0.0024287735,
        "meta_mean_motion_dot": 6.189e-05,
        "meta_mean_motion_ddot": 0,
        "tle_line1": "1 31311U 99025BPP 25337.19443788  .00006189  00000+0  24288-2 0  9997",
        "tle_line2": "2 31311  98.8541  58.3861 0019537 114.1459 275.1798 14.29604123960856"
      },
      "geometry": {
        "type": "Point",
        "coordinates": [
          -124.78912025127528,
          -21.746862226252762
        ]
      }
    },
    {
      "type": "Feature",
      "properties": {
        "norad_id": 31312,
        "name": "FENGYUN 1C DEB",
        "group": "fengyun-1c-debris",
        "lat": -52.067989112014345,
        "lon": 131.98209668353206,
        "alt_km": 860.6375651264416,
        "timestamp": "2025-12-03T13:52:09.843561+00:00",
        "meta_object_name": "FENGYUN 1C DEB",
        "meta_object_id": "1999-025BPQ",
        "meta_epoch": "2025-12-01T11:40:09.596352",
        "meta_mean_motion": 14.00893121,
        "meta_eccentricity": 0.00581856,
        "meta_inclination": 98.8574,
        "meta_ra_of_asc_node": 321.4953,
        "meta_arg_of_pericenter": 267.9693,
        "meta_mean_anomaly": 222.3029,
        "meta_ephemeris_type": 0,
        "meta_classification_type": "U",
        "meta_norad_cat_id": 31312,
        "meta_element_set_no": 999,
        "meta_rev_at_epoch": 94988,
        "meta_bstar": 0.00061208287,
        "meta_mean_motion_dot": 8.85e-06,
        "meta_mean_motion_ddot": 0,
        "tle_line1": "1 31312U 99025BPQ 25335.48622218  .00000885  00000+0  61208-3 0  9996",
        "tle_line2": "2 31312  98.8574 321.4953 0058185 267.9693 222.3029 14.00893121949886"
      },
      "geometry": {
        "type": "Point",
        "coordinates": [
          131.98209668353206,
          -52.067989112014345
        ]
      }
    },
    {
      "type": "Feature",
      "properties": {
        "norad_id": 31313,
        "name": "FENGYUN 1C DEB",
        "group": "fengyun-1c-debris",
        "lat": -63.260042656044526,
        "lon": -100.37775442255423,
        "alt_km": 823.4291575097459,
        "timestamp": "2025-12-03T13:52:09.843571+00:00",
        "meta_object_name": "FENGYUN 1C DEB",
        "meta_object_id": "1999-025BPR",
        "meta_epoch": "2025-12-03T04:02:38.444928",
        "meta_mean_motion": 14.22252395,
        "meta_eccentricity": 0.0044174,
        "meta_inclination": 99.0144,
        "meta_ra_of_asc_node": 240.8383,
        "meta_arg_of_pericenter": 208.9007,
        "meta_mean_anomaly": 150.9723,
        "meta_ephemeris_type": 0,
        "meta_classification_type": "U",
        "meta_norad_cat_id": 31313,
        "meta_element_set_no": 999,
        "meta_rev_at_epoch": 96926,
        "meta_bstar": 0.00039979542,
        "meta_mean_motion_dot": 8.5e-06,
        "meta_mean_motion_ddot": 0,
        "tle_line1": "1 31313U 99025BPR 25337.16850052  .00000850  00000+0  39980-3 0  9997",
        "tle_line2": "2 31313  99.0144 240.8383 0044174 208.9007 150.9723 14.22252395969268"
      },
      "geometry": {
        "type": "Point",
        "coordinates": [
          -100.37775442255423,
          -63.260042656044526
        ]
      }
    },
    {
      "type": "Feature",
      "properties": {
        "norad_id": 31314,
        "name": "FENGYUN 1C DEB",
        "group": "fengyun-1c-debris",
        "lat": -15.77456502618431,
        "lon": 149.32857641956207,
        "alt_km": 938.6103664018947,
        "timestamp": "2025-12-03T13:52:09.843582+00:00",
        "meta_object_name": "FENGYUN 1C DEB",
        "meta_object_id": "1999-025BPS",
        "meta_epoch": "2025-11-29T06:23:17.726496",
        "meta_mean_motion": 14.04902507,
        "meta_eccentricity": 0.00792454,
        "meta_inclination": 98.8217,
        "meta_ra_of_asc_node": 327.6511,
        "meta_arg_of_pericenter": 34.949,
        "meta_mean_anomaly": 325.6844,
        "meta_ephemeris_type": 0,
        "meta_classification_type": "U",
        "meta_norad_cat_id": 31314,
        "meta_element_set_no": 999,
        "meta_rev_at_epoch": 60625,
        "meta_bstar": 0.00041647017,
        "meta_mean_motion_dot": 6.46e-06,
        "meta_mean_motion_ddot": 0,
        "tle_line1": "1 31314U 99025BPS 25333.26617739  .00000646  00000+0  41647-3 0  9994",
        "tle_line2": "2 31314  98.8217 327.6511 0079245  34.9490 325.6844 14.04902507606253"
      },
      "geometry": {
        "type": "Point",
        "coordinates": [
          149.32857641956207,
          -15.77456502618431
        ]
      }
    },
    {
      "type": "Feature",
      "properties": {
        "norad_id": 31319,
        "name": "FENGYUN 1C DEB",
        "group": "fengyun-1c-debris",
        "lat": -61.563843857424054,
        "lon": -106.26408231469657,
        "alt_km": 1110.6049439966764,
        "timestamp": "2025-12-03T13:52:09.843592+00:00",
        "meta_object_name": "FENGYUN 1C DEB",
        "meta_object_id": "1999-025BPX",
        "meta_epoch": "2025-12-01T13:52:46.372800",
        "meta_mean_motion": 13.7582212,
        "meta_eccentricity": 0.01704858,
        "meta_inclination": 98.8307,
        "meta_ra_of_asc_node": 235.1992,
        "meta_arg_of_pericenter": 116.5538,
        "meta_mean_anomaly": 2.353,
        "meta_ephemeris_type": 0,
        "meta_classification_type": "U",
        "meta_norad_cat_id": 31319,
        "meta_element_set_no": 999,
        "meta_rev_at_epoch": 93534,
        "meta_bstar": 0.00018484485,
        "meta_mean_motion_dot": 1.61e-06,
        "meta_mean_motion_ddot": 0,
        "tle_line1": "1 31319U 99025BPX 25335.57831450  .00000161  00000+0  18484-3 0  9998",
        "tle_line2": "2 31319  98.8307 235.1992 0170485 116.5538   2.3530 13.75822120935347"
      },
      "geometry": {
        "type": "Point",
        "coordinates": [
          -106.26408231469657,
          -61.563843857424054
        ]
      }
    },
    {
      "type": "Feature",
      "properties": {
        "norad_id": 31321,
        "name": "FENGYUN 1C DEB",
        "group": "fengyun-1c-debris",
        "lat": 56.668878472395214,
        "lon": 43.139337615993746,
        "alt_km": 858.5152214020272,
        "timestamp": "2025-12-03T13:52:09.843603+00:00",
        "meta_object_name": "FENGYUN 1C DEB",
        "meta_object_id": "1999-025BPZ",
        "meta_epoch": "2025-11-28T23:11:37.489632",
        "meta_mean_motion": 14.13809948,
        "meta_eccentricity": 0.00293651,
        "meta_inclination": 98.7348,
        "meta_ra_of_asc_node": 52.1537,
        "meta_arg_of_pericenter": 217.1862,
        "meta_mean_anomaly": 142.7277,
        "meta_ephemeris_type": 0,
        "meta_classification_type": "U",
        "meta_norad_cat_id": 31321,
        "meta_element_set_no": 999,
        "meta_rev_at_epoch": 57189,
        "meta_bstar": 0.00017233355,
        "meta_mean_motion_dot": 2.84e-06,
        "meta_mean_motion_ddot": 0,
        "tle_line1": "1 31321U 99025BPZ 25332.96640613  .00000284  00000+0  17233-3 0  9997",
        "tle_line2": "2 31321  98.7348  52.1537 0029365 217.1862 142.7277 14.13809948571893"
      },
      "geometry": {
        "type": "Point",
        "coordinates": [
          43.139337615993746,
          56.668878472395214
        ]
      }
    }
  ]
}